NORAD_CAT_ID,OBJECT_NAME,OBJECT_TYPE,EPOCH,MEAN_MOTION,ECCENTRICITY,INCLINATION,RA_OF_ASC_NODE,ARG_OF_PERICENTER,MEAN_ANOMALY,BSTAR,MEAN_MOTION_DOT,MEAN_MOTION_DDOT,TLE_LINE0,TLE_LINE1,TLE_LINE2,SEMIMAJOR_AXIS,PERIOD,APOGEE,PERIGEE,DECAYED
53542.0,STARLINK-4489,PAYLOAD,2023-06-09 07:08:34,15.08834198,0.0002087,53.2124,253.0107,115.2396,244.8813,6.1765e-05,6.95e-06,0.0,0 STARLINK-4489,1 53542U 22101R   23160.29762205  .00000695  00000-0  61765-4 0  9999,2 53542  53.2124 253.0107 0002087 115.2396 244.8813 15.08834198 44678,6917.898,95.438,541.207,538.319,0.0
53542.0,STARLINK-4489,PAYLOAD,2023-06-09 10:19:20,15.08837347,9.54e-05,53.2162,252.4178,104.3097,255.8001,2.047e-06,-2.55e-06,0.0,0 STARLINK-4489,1 53542U 22101R   23160.43010251 -.00000255  00000-0  20470-5 0  9994,2 53542  53.2162 252.4178 0000954 104.3097 255.8001 15.08837347 45388,6917.888,95.438,540.413,539.094,0.0
53542.0,STARLINK-4489,PAYLOAD,2023-06-10 08:34:44,15.08835898,0.0001029,53.2158,248.2558,95.8546,264.2563,7.166e-05,8.53e-06,0.0,0 STARLINK-4489,1 53542U 22101R   23161.35746428  .00000853  00000-0  71660-4 0  9997,2 53542  53.2158 248.2558 0001029  95.8546 264.2563 15.08835898 44830,6917.893,95.438,540.47,539.046,0.0
53542.0,STARLINK-4489,PAYLOAD,2023-06-10 13:20:53,15.08843084,9.66e-05,53.216,247.3624,99.9984,260.1117,6.7729e-05,7.9e-06,0.0,0 STARLINK-4489,1 53542U 22101R   23161.55618034  .00000790  00000-0  67729-4 0  9991,2 53542  53.2160 247.3624 0000966  99.9984 260.1117 15.08843084 45553,6917.871,95.437,540.404,539.068,0.0
53542.0,STARLINK-4489,PAYLOAD,2023-06-11 11:36:18,15.08837233,0.000101,53.2159,243.2,83.1181,276.9926,4.8453e-05,4.83e-06,0.0,0 STARLINK-4489,1 53542U 22101R   23162.48354686  .00000483  00000-0  48453-4 0  9996,2 53542  53.2159 243.2000 0001010  83.1181 276.9926 15.08837233 45696,6917.889,95.438,540.453,539.055,0.0
53542.0,STARLINK-4489,PAYLOAD,2023-06-11 14:47:04,15.08839103,0.0001062,53.2159,242.6044,82.4939,277.6174,6.0831e-05,6.8e-06,0.0,0 STARLINK-4489,1 53542U 22101R   23162.61602539  .00000680  00000-0  60831-4 0  9997,2 53542  53.2159 242.6044 0001062  82.4939 277.6174 15.08839103 45025,6917.883,95.438,540.483,539.013,0.0
53542.0,STARLINK-4489,PAYLOAD,2023-06-12 11:27:05,15.08837784,9.5e-05,53.2163,238.7375,89.0988,271.0113,0.00018363,2.636e-05,0.0,0 STARLINK-4489,1 53542U 22101R   23163.47714295  .00002636  00000-0  18363-3 0  9990,2 53542  53.2163 238.7375 0000950  89.0988 271.0113 15.08837784 45849,6917.887,95.438,540.409,539.095,0.0
53542.0,STARLINK-4489,PAYLOAD,2023-06-12 22:34:46,15.08843292,9.78e-05,53.216,236.6565,84.5258,275.5846,9.0837e-05,1.158e-05,0.0,0 STARLINK-4489,1 53542U 22101R   23163.94082044  .00001158  00000-0  90837-4 0  9997,2 53542  53.2160 236.6565 0000978  84.5258 275.5846 15.08843292 45229,6917.87,95.437,540.412,539.059,0.0
53542.0,STARLINK-4489,PAYLOAD,2023-06-13 04:56:20,15.08833189,0.0001073,53.2151,235.469,79.0309,281.0804,4.4582e-05,4.22e-06,0.0,0 STARLINK-4489,1 53542U 22101R   23164.20578864  .00000422  00000-0  44582-4 0  9996,2 53542  53.2151 235.4690 0001073  79.0309 281.0804 15.08833189 45262,6917.901,95.438,540.508,539.024,0.0
53542.0,STARLINK-4489,PAYLOAD,2023-06-13 14:28:38,15.08840567,0.0001095,53.2152,233.6845,83.1505,276.9611,3.2471e-05,2.29e-06,0.0,0 STARLINK-4489,1 53542U 22101R   23164.60322473  .00000229  00000-0  32471-4 0  9992,2 53542  53.2152 233.6845 0001095  83.1505 276.9611 15.08840567 45327,6917.879,95.438,540.501,538.986,0.0
53542.0,STARLINK-4489,PAYLOAD,2023-06-14 04:47:06,15.08838903,9.78e-05,53.2155,231.0067,99.4471,260.6631,1.0663e-05,-1.18e-06,0.0,0 STARLINK-4489,1 53542U 22101R   23165.19938560 -.00000118  00000-0  10663-4 0  9994,2 53542  53.2155 231.0067 0000978  99.4471 260.6631 15.08838903 46109,6917.884,95.438,540.425,539.072,0.0
53542.0,STARLINK-4489,PAYLOAD,2023-06-14 20:40:57,15.08844792,0.0001002,53.2153,228.0332,92.1732,267.9375,-5.7511e-06,-3.79e-06,0.0,0 STARLINK-4489,1 53542U 22101R   23165.86178170 -.00000379  00000-0 -57511-5 0  9995,2 53542  53.2153 228.0332 0001002  92.1732 267.9375 15.08844792 46206,6917.866,95.437,540.424,539.038,0.0
53542.0,STARLINK-4489,PAYLOAD,2023-06-15 09:24:03,15.0882319,0.0001056,53.2156,225.6553,95.6566,264.4547,0.00017593,2.512e-05,0.0,0 STARLINK-4489,1 53542U 22101R   23166.39171294  .00002512  00000-0  17593-3 0  9997,2 53542  53.2156 225.6553 0001056  95.6566 264.4547 15.08823190 45592,6917.932,95.439,540.527,539.066,0.0
53542.0,STARLINK-4489,PAYLOAD,2023-06-15 10:59:26,15.08861508,9.89e-05,53.2157,225.3583,97.5576,262.5529,-0.00033154,-5.563e-05,0.0,0 STARLINK-4489,1 53542U 22101R   23166.45794252 -.00005563  00000-0 -33154-3 0  9991,2 53542  53.2157 225.3583 0000989  97.5576 262.5529 15.08861508 46291,6917.815,95.436,540.364,538.995,0.0
53542.0,STARLINK-4489,PAYLOAD,2023-06-15 23:42:31,15.08837853,0.0001156,53.2161,222.9816,93.8964,266.216,6.5392e-05,7.53e-06,0.0,0 STARLINK-4489,1 53542U 22101R   23166.98786733  .00000753  00000-0  65392-4 0  9998,2 53542  53.2161 222.9816 0001156  93.8964 266.2160 15.08837853 45685,6917.887,95.438,540.552,538.952,0.0
53542.0,STARLINK-4489,PAYLOAD,2023-06-16 09:14:50,15.08844343,0.0001185,53.2162,221.1974,99.5011,260.6115,0.00011514,1.545e-05,0.0,0 STARLINK-4489,1 53542U 22101R   23167.38530193  .00001545  00000-0  11514-3 0  9996,2 53542  53.2162 221.1974 0001185  99.5011 260.6115 15.08844343 46434,6917.867,95.437,540.552,538.912,0.0
53542.0,STARLINK-4489,PAYLOAD,2023-06-16 20:22:32,15.08839418,0.0001141,53.2157,219.1138,96.7233,263.3889,9.9608e-05,1.298e-05,0.0,0 STARLINK-4489,1 53542U 22101R   23167.84898427  .00001298  00000-0  99608-4 0  9990,2 53542  53.2157 219.1138 0001141  96.7233 263.3889 15.08839418 46507,6917.882,95.438,540.536,538.958,0.0
53542.0,STARLINK-4489,PAYLOAD,2023-06-16 23:33:18,15.08838166,0.0001199,53.2162,218.5206,100.2489,259.8638,6.8773e-05,8.07e-06,0.0,0 STARLINK-4489,1 53542U 22101R   23167.98146643  .00000807  00000-0  68773-4 0  9995,2 53542  53.2162 218.5206 0001199 100.2489 259.8638 15.08838166 45835,6917.886,95.438,540.58,538.922,0.0
53542.0,STARLINK-4489,PAYLOAD,2023-06-17 12:16:24,15.0883646,0.0001141,53.2155,216.1403,94.1987,265.9136,5.243e-05,5.47e-06,0.0,0 STARLINK-4489,1 53542U 22101R   23168.51138926  .00000547  00000-0  52430-4 0  9994,2 53542  53.2155 216.1403 0001141  94.1987 265.9136 15.08836460 46603,6917.891,95.438,540.546,538.967,0.0
53542.0,STARLINK-4489,PAYLOAD,2023-06-17 20:13:19,15.08835495,0.0001115,53.2155,214.6534,92.192,267.92,2.763e-05,1.52e-06,0.0,0 STARLINK-4489,1 53542U 22101R   23168.84259133  .00000152  00000-0  27630-4 0  9990,2 53542  53.2155 214.6534 0001115  92.1920 267.9200 15.08835495 46653,6917.894,95.438,540.531,538.988,0.0
53542.0,STARLINK-4489,PAYLOAD,2023-06-18 12:07:11,15.08840332,0.0001115,53.2154,211.6793,91.6141,268.4979,-1.8474e-05,-5.82e-06,0.0,0 STARLINK-4489,1 53542U 22101R   23169.50499027 -.00000582  00000-0 -18474-4 0  9997,2 53542  53.2154 211.6793 0001115  91.6141 268.4979 15.08840332 46751,6917.879,95.438,540.516,538.973,0.0
53542.0,STARLINK-4489,PAYLOAD,2023-06-18 20:04:06,15.08837397,0.0001124,53.2155,210.1916,88.1539,271.9581,-1.1752e-05,-4.75e-06,0.0,0 STARLINK-4489,1 53542U 22101R   23169.83619206 -.00000475  00000-0 -11752-4 0  9999,2 53542  53.2155 210.1916 0001124  88.1539 271.9581 15.08837397 46806,6917.888,95.438,540.531,538.976,0.0
53542.0,STARLINK-4489,PAYLOAD,2023-06-18 23:14:53,15.08833191,0.000105,53.2151,209.596,89.8293,270.282,6.4987e-05,7.46e-06,0.0,0 STARLINK-4489,1 53542U 22101R   23169.96867198  .00000746  00000-0  64987-4 0  9995,2 53542  53.2151 209.5960 0001050  89.8293 270.2820 15.08833191 46138,6917.901,95.438,540.493,539.04,0.0
53542.0,STARLINK-4489,PAYLOAD,2023-06-19 08:47:12,15.08835827,0.0001054,53.2151,207.8118,89.8885,270.2227,7.8663e-05,9.64e-06,0.0,0 STARLINK-4489,1 53542U 22101R   23170.36611138  .00000964  00000-0  78663-4 0  9990,2 53542  53.2151 207.8118 0001054  89.8885 270.2227 15.08835827 46886,6917.893,95.438,540.487,539.029,0.0
53542.0,STARLINK-4489,PAYLOAD,2023-06-19 19:54:53,15.08839336,0.0001029,53.2152,205.7302,90.1934,269.9176,7.1841e-05,8.56e-06,0.0,0 STARLINK-4489,1 53542U 22101R   23170.82978989  .00000856  00000-0  71841-4 0  9992,2 53542  53.2152 205.7302 0001029  90.1934 269.9176 15.08839336 46956,6917.882,95.438,540.459,539.036,0.0
53542.0,STARLINK-4489,PAYLOAD,2023-06-20 02:16:26,15.08837854,0.0001039,53.215,204.5409,89.9651,270.146,7.7862e-05,9.52e-06,0.0,0 STARLINK-4489,1 53542U 22101R   23171.09475104  .00000952  00000-0  77862-4 0  9999,2 53542  53.2150 204.5409 0001039  89.9651 270.1460 15.08837854 46304,6917.887,95.438,540.471,539.033,0.0
53542.0,STARLINK-4489,PAYLOAD,2023-06-20 08:37:58,15.08840608,0.0001043,53.215,203.3517,89.3314,270.7797,9.4439e-05,1.216e-05,0.0,0 STARLINK-4489,1 53542U 22101R   23171.35970898  .00001216  00000-0  94439-4 0  9991,2 53542  53.2150 203.3517 0001043  89.3314 270.7797 15.08840608 47037,6917.879,95.438,540.465,539.022,0.0
53542.0,STARLINK-4489,PAYLOAD,2023-06-21 11:39:32,15.08841532,0.0001052,53.2149,198.297,87.2112,272.9001,4.9688e-05,5.03e-06,0.0,0 STARLINK-4489,1 53542U 22101R   23172.48578983  .00000503  00000-0  49688-4 0  9999,2 53542  53.2149 198.2970 0001052  87.2112 272.9001 15.08841532 46514,6917.876,95.437,540.468,539.013,0.0
53542.0,STARLINK-4489,PAYLOAD,2023-06-22 08:19:33,15.08836742,0.0001094,53.2149,194.4316,83.345,276.7667,-1.4316e-05,-5.16e-06,0.0,0 STARLINK-4489,1 53542U 22101R   23173.34691563 -.00000516  00000-0 -14316-4 0  9991,2 53542  53.2149 194.4316 0001094  83.3450 276.7667 15.08836742 46645,6917.89,95.438,540.512,538.999,0.0
53542.0,STARLINK-4489,PAYLOAD,2023-06-23 08:10:20,15.08842608,0.0001102,53.2149,189.9705,79.5567,280.5549,6.3563e-05,7.24e-06,0.0,0 STARLINK-4489,1 53542U 22101R   23174.34051056  .00000724  00000-0  63563-4 0  9996,2 53542  53.2149 189.9705 0001102  79.5567 280.5549 15.08842608 46798,6917.872,95.437,540.5,538.975,0.0
